start=new Date('2022-09-02T00:00:00.000Z').valueOf();
sats=[{"MEAN_MOTION_DOT":"0.00067946","OBJECT_ID":"2022-077G","PERIAPSIS":"561.665","FILE":"3554009","MEAN_ELEMENT_THEORY":"SGP4","OBJECT_NAME":"STARLINK-4345","TLE_LINE1":"1 53049U 22077G   22244.91667824  .00067946  00000-0  52500-2 0  9992","ARG_OF_PERICENTER":"69.0184","REV_AT_EPOCH":"130","SITE":"AFWTR","DECAY_DATE":null,"BSTAR":"0.00525000000000","ECCENTRICITY":"0.00021420","CLASSIFICATION_TYPE":"U","RCS_SIZE":"LARGE","ELEMENT_SET_NO":"999","OBJECT_TYPE":"PAYLOAD","GP_ID":"211505915","LAUNCH_DATE":"2022-07-11","TIME_SYSTEM":"UTC","RA_OF_ASC_NODE":"65.1098","REF_FRAME":"TEME","COUNTRY_CODE":"US","TLE_LINE2":"2 53049  97.6602  65.1098 0002142  69.0184 350.8605 15.01214662  1308","MEAN_MOTION_DDOT":"0.0000000000000","SEMIMAJOR_AXIS":"6941.287","NORAD_CAT_ID":"53049","MEAN_ANOMALY":"350.8605","MEAN_MOTION":"15.01214662","CENTER_NAME":"EARTH","EPHEMERIS_TYPE":"0","PERIOD":"95.922","EPOCH":"2022-09-01T22:00:00.999936","INCLINATION":"97.6602","APOAPSIS":"564.638"},{"TLE_LINE2":"2 53050  97.6595  65.1110 0001718  76.6436 324.5214 15.01220053  1303","MEAN_MOTION_DDOT":"0.0000000000000","RA_OF_ASC_NODE":"65.1110","REF_FRAME":"TEME","COUNTRY_CODE":"US","GP_ID":"211506200","LAUNCH_DATE":"2022-07-11","TIME_SYSTEM":"UTC","OBJECT_TYPE":"PAYLOAD","INCLINATION":"97.6595","EPOCH":"2022-09-01T22:00:00.999936","APOAPSIS":"564.327","CENTER_NAME":"EARTH","EPHEMERIS_TYPE":"0","PERIOD":"95.922","MEAN_ANOMALY":"324.5214","MEAN_MOTION":"15.01220053","SEMIMAJOR_AXIS":"6941.270","NORAD_CAT_ID":"53050","ARG_OF_PERICENTER":"76.6436","TLE_LINE1":"1 53050U 22077H   22244.91667824  .00067314  00000-0  52010-2 0  9999","SITE":"AFWTR","REV_AT_EPOCH":"130","DECAY_DATE":null,"OBJECT_NAME":"STARLINK-4343","MEAN_MOTION_DOT":"0.00067314","OBJECT_ID":"2022-077H","PERIAPSIS":"561.942","MEAN_ELEMENT_THEORY":"SGP4","FILE":"3554009","ELEMENT_SET_NO":"999","RCS_SIZE":"LARGE","BSTAR":"0.00520100000000","ECCENTRICITY":"0.00017180","CLASSIFICATION_TYPE":"U"},{"OBJECT_ID":"2022-077J","MEAN_MOTION_DOT":"0.00068378","FILE":"3554009","MEAN_ELEMENT_THEORY":"SGP4","PERIAPSIS":"561.837","OBJECT_NAME":"STARLINK-4336","SITE":"AFWTR","REV_AT_EPOCH":"130","TLE_LINE1":"1 53051U 22077J   22244.91667824  .00068378  00000-0  52826-2 0  9996","ARG_OF_PERICENTER":"74.7726","DECAY_DATE":null,"BSTAR":"0.00528260000000","ECCENTRICITY":"0.00018810","CLASSIFICATION_TYPE":"U","RCS_SIZE":"LARGE","ELEMENT_SET_NO":"999","OBJECT_TYPE":"PAYLOAD","GP_ID":"211506058","TIME_SYSTEM":"UTC","LAUNCH_DATE":"2022-07-11","COUNTRY_CODE":"US","RA_OF_ASC_NODE":"65.1106","REF_FRAME":"TEME","TLE_LINE2":"2 53051  97.6600  65.1106 0001881  74.7726 356.3563 15.01217631  1306","MEAN_MOTION_DDOT":"0.0000000000000","SEMIMAJOR_AXIS":"6941.277","NORAD_CAT_ID":"53051","MEAN_MOTION":"15.01217631","MEAN_ANOMALY":"356.3563","EPHEMERIS_TYPE":"0","CENTER_NAME":"EARTH","PERIOD":"95.922","INCLINATION":"97.6600","EPOCH":"2022-09-01T22:00:00.999936","APOAPSIS":"564.448"},{"SEMIMAJOR_AXIS":"6941.214","NORAD_CAT_ID":"53052","MEAN_MOTION":"15.01238088","MEAN_ANOMALY":"336.5317","EPHEMERIS_TYPE":"0","CENTER_NAME":"EARTH","PERIOD":"95.921","EPOCH":"2022-09-01T22:00:00.999936","INCLINATION":"97.6591","APOAPSIS":"564.549","OBJECT_TYPE":"PAYLOAD","GP_ID":"211506758","TIME_SYSTEM":"UTC","LAUNCH_DATE":"2022-07-11","COUNTRY_CODE":"US","RA_OF_ASC_NODE":"65.1097","REF_FRAME":"TEME","TLE_LINE2":"2 53052  97.6591  65.1097 0002117  74.6288 336.5317 15.01238088  1306","MEAN_MOTION_DDOT":"0.0000000000000","BSTAR":"0.00522200000000","ECCENTRICITY":"0.00021170","CLASSIFICATION_TYPE":"U","RCS_SIZE":"LARGE","ELEMENT_SET_NO":"999","OBJECT_ID":"2022-077K","MEAN_MOTION_DOT":"0.00067622","FILE":"3554009","MEAN_ELEMENT_THEORY":"SGP4","PERIAPSIS":"561.610","OBJECT_NAME":"STARLINK-4341","SITE":"AFWTR","REV_AT_EPOCH":"130","ARG_OF_PERICENTER":"74.6288","TLE_LINE1":"1 53052U 22077K   22244.91667824  .00067622  00000-0  52220-2 0  9996","DECAY_DATE":null},{"DECAY_DATE":null,"TLE_LINE1":"1 53053U 22077L   22244.91667824  .00068819  00000-0  53141-2 0  9999","ARG_OF_PERICENTER":"74.2202","SITE":"AFWTR","REV_AT_EPOCH":"130","OBJECT_NAME":"STARLINK-4337","PERIAPSIS":"561.807","FILE":"3554009","MEAN_ELEMENT_THEORY":"SGP4","MEAN_MOTION_DOT":"0.00068819","OBJECT_ID":"2022-077L","ELEMENT_SET_NO":"999","RCS_SIZE":"LARGE","CLASSIFICATION_TYPE":"U","ECCENTRICITY":"0.00018530","BSTAR":"0.00531410000000","MEAN_MOTION_DDOT":"0.0000000000000","TLE_LINE2":"2 53053  97.6591  65.1103 0001853  74.2202  16.8635 15.01233494  1300","RA_OF_ASC_NODE":"65.1103","REF_FRAME":"TEME","COUNTRY_CODE":"US","LAUNCH_DATE":"2022-07-11","TIME_SYSTEM":"UTC","GP_ID":"211506329","OBJECT_TYPE":"PAYLOAD","APOAPSIS":"564.380","EPOCH":"2022-09-01T22:00:00.999936","INCLINATION":"97.6591","PERIOD":"95.921","CENTER_NAME":"EARTH","EPHEMERIS_TYPE":"0","MEAN_ANOMALY":"16.8635","MEAN_MOTION":"15.01233494","NORAD_CAT_ID":"53053","SEMIMAJOR_AXIS":"6941.229"},{"EPOCH":"2022-09-01T22:00:00.999936","INCLINATION":"97.6598","APOAPSIS":"564.678","CENTER_NAME":"EARTH","EPHEMERIS_TYPE":"0","PERIOD":"95.922","MEAN_ANOMALY":"347.6182","MEAN_MOTION":"15.01217329","SEMIMAJOR_AXIS":"6941.278","NORAD_CAT_ID":"53054","TLE_LINE2":"2 53054  97.6598  65.1116 0002211  73.5017 347.6182 15.01217329  1308","MEAN_MOTION_DDOT":"0.0000000000000","RA_OF_ASC_NODE":"65.1116","REF_FRAME":"TEME","COUNTRY_CODE":"US","GP_ID":"211506615","LAUNCH_DATE":"2022-07-11","TIME_SYSTEM":"UTC","OBJECT_TYPE":"PAYLOAD","ELEMENT_SET_NO":"999","RCS_SIZE":"LARGE","BSTAR":"0.00525990000000","ECCENTRICITY":"0.00022110","CLASSIFICATION_TYPE":"U","ARG_OF_PERICENTER":"73.5017","TLE_LINE1":"1 53054U 22077M   22244.91667824  .00068081  00000-0  52599-2 0  9997","REV_AT_EPOCH":"130","SITE":"AFWTR","DECAY_DATE":null,"OBJECT_NAME":"STARLINK-4339","MEAN_MOTION_DOT":"0.00068081","OBJECT_ID":"2022-077M","PERIAPSIS":"561.609","MEAN_ELEMENT_THEORY":"SGP4","FILE":"3554009"},{"REV_AT_EPOCH":"130","SITE":"AFWTR","ARG_OF_PERICENTER":"74.8904","TLE_LINE1":"1 53055U 22077N   22244.91667824  .00069049  00000-0  53309-2 0  9993","DECAY_DATE":null,"OBJECT_NAME":"STARLINK-4338","OBJECT_ID":"2022-077N","MEAN_MOTION_DOT":"0.00069049","MEAN_ELEMENT_THEORY":"SGP4","FILE":"3554009","PERIAPSIS":"561.634","ELEMENT_SET_NO":"999","RCS_SIZE":"LARGE","ECCENTRICITY":"0.00020770","BSTAR":"0.00533090000000","CLASSIFICATION_TYPE":"U","TLE_LINE2":"2 53055  97.6589  65.1093 0002077  74.8904  26.2832 15.01239220  1308","MEAN_MOTION_DDOT":"0.0000000000000","COUNTRY_CODE":"US","RA_OF_ASC_NODE":"65.1093","REF_FRAME":"TEME","GP_ID":"211506472","TIME_SYSTEM":"UTC","LAUNCH_DATE":"2022-07-11","OBJECT_TYPE":"PAYLOAD","INCLINATION":"97.6589","EPOCH":"2022-09-01T22:00:00.999936","APOAPSIS":"564.518","EPHEMERIS_TYPE":"0","CENTER_NAME":"EARTH","PERIOD":"95.921","MEAN_MOTION":"15.01239220","MEAN_ANOMALY":"26.2832","SEMIMAJOR_AXIS":"6941.211","NORAD_CAT_ID":"53055"},{"ARG_OF_PERICENTER":"80.1901","TLE_LINE1":"1 53056U 22077P   22244.91667824  .00068397  00000-0  52817-2 0  9992","REV_AT_EPOCH":"130","SITE":"AFWTR","DECAY_DATE":null,"OBJECT_NAME":"STARLINK-4314","MEAN_MOTION_DOT":"0.00068397","OBJECT_ID":"2022-077P","PERIAPSIS":"561.757","MEAN_ELEMENT_THEORY":"SGP4","FILE":"3554009","ELEMENT_SET_NO":"999","RCS_SIZE":"LARGE","BSTAR":"0.00528170000000","ECCENTRICITY":"0.00019200","CLASSIFICATION_TYPE":"U","TLE_LINE2":"2 53056  97.6599  65.1111 0001920  80.1901   0.9040 15.01234651  1307","MEAN_MOTION_DDOT":"0.0000000000000","RA_OF_ASC_NODE":"65.1111","REF_FRAME":"TEME","COUNTRY_CODE":"US","GP_ID":"211506915","LAUNCH_DATE":"2022-07-11","TIME_SYSTEM":"UTC","OBJECT_TYPE":"PAYLOAD","INCLINATION":"97.6599","EPOCH":"2022-09-01T22:00:00.999936","APOAPSIS":"564.423","CENTER_NAME":"EARTH","EPHEMERIS_TYPE":"0","PERIOD":"95.921","MEAN_ANOMALY":"0.9040","MEAN_MOTION":"15.01234651","SEMIMAJOR_AXIS":"6941.225","NORAD_CAT_ID":"53056"},{"OBJECT_TYPE":"PAYLOAD","GP_ID":"211505916","LAUNCH_DATE":"2022-07-11","TIME_SYSTEM":"UTC","REF_FRAME":"TEME","RA_OF_ASC_NODE":"65.1092","COUNTRY_CODE":"US","TLE_LINE2":"2 53057  97.6584  65.1092 0002000  88.8169  32.2474 15.01230011  1306","MEAN_MOTION_DDOT":"0.0000000000000","SEMIMAJOR_AXIS":"6941.239","NORAD_CAT_ID":"53057","MEAN_ANOMALY":"32.2474","MEAN_MOTION":"15.01230011","CENTER_NAME":"EARTH","EPHEMERIS_TYPE":"0","PERIOD":"95.921","INCLINATION":"97.6584","EPOCH":"2022-09-01T22:00:00.999936","APOAPSIS":"564.493","OBJECT_ID":"2022-077Q","MEAN_MOTION_DOT":"0.00069390","PERIAPSIS":"561.716","FILE":"3554009","MEAN_ELEMENT_THEORY":"SGP4","OBJECT_NAME":"STARLINK-4252","TLE_LINE1":"1 53057U 22077Q   22244.91667824  .00069390  00000-0  53582-2 0  9997","ARG_OF_PERICENTER":"88.8169","SITE":"AFWTR","REV_AT_EPOCH":"130","DECAY_DATE":null,"BSTAR":"0.00535820000000","ECCENTRICITY":"0.00020000","CLASSIFICATION_TYPE":"U","RCS_SIZE":"LARGE","ELEMENT_SET_NO":"999"},{"MEAN_MOTION_DDOT":"0.0000000000000","TLE_LINE2":"2 53058  97.6589  65.1097 0001942  63.6090  36.1430 15.01231177  1304","COUNTRY_CODE":"US","RA_OF_ASC_NODE":"65.1097","REF_FRAME":"TEME","TIME_SYSTEM":"UTC","LAUNCH_DATE":"2022-07-11","GP_ID":"211506201","OBJECT_TYPE":"PAYLOAD","APOAPSIS":"564.449","INCLINATION":"97.6589","EPOCH":"2022-09-01T22:00:00.999936","PERIOD":"95.921","EPHEMERIS_TYPE":"0","CENTER_NAME":"EARTH","MEAN_MOTION":"15.01231177","MEAN_ANOMALY":"36.1430","NORAD_CAT_ID":"53058","SEMIMAJOR_AXIS":"6941.236","DECAY_DATE":null,"SITE":"AFWTR","REV_AT_EPOCH":"130","TLE_LINE1":"1 53058U 22077R   22244.91667824  .00068891  00000-0  53199-2 0  9997","ARG_OF_PERICENTER":"63.6090","OBJECT_NAME":"STARLINK-4317","FILE":"3554009","MEAN_ELEMENT_THEORY":"SGP4","PERIAPSIS":"561.753","OBJECT_ID":"2022-077R","MEAN_MOTION_DOT":"0.00068891","ELEMENT_SET_NO":"999","RCS_SIZE":"LARGE","CLASSIFICATION_TYPE":"U","ECCENTRICITY":"0.00019420","BSTAR":"0.00531990000000"}];
